NORAD_CAT_ID,OBJECT_NAME,OBJECT_TYPE,EPOCH,MEAN_MOTION,ECCENTRICITY,INCLINATION,RA_OF_ASC_NODE,ARG_OF_PERICENTER,MEAN_ANOMALY,BSTAR,MEAN_MOTION_DOT,MEAN_MOTION_DDOT,TLE_LINE0,TLE_LINE1,TLE_LINE2,SEMIMAJOR_AXIS,PERIOD,APOGEE,PERIGEE,DECAYED
52619.0,STARLINK-3741,PAYLOAD,2023-10-02 19:11:26,15.08836848,0.0001521,53.2158,299.4945,94.2141,265.9025,0.00010436,1.373e-05,0.0,0 STARLINK-3741,1 52619U 22052X   23275.79960698  .00001373  00000-0  10436-3 0  9998,2 52619  53.2158 299.4945 0001521  94.2141 265.9025 15.08836848 76790,6917.89,95.438,540.807,538.703,0.0
52619.0,STARLINK-3741,PAYLOAD,2023-10-03 07:54:30,15.08852971,0.0001513,53.2151,297.1159,91.9692,268.1474,0.00023886,3.517e-05,0.0,0 STARLINK-3741,1 52619U 22052X   23276.32952094  .00003517  00000-0  23886-3 0  9994,2 52619  53.2151 297.1159 0001513  91.9692 268.1474 15.08852971 77251,6917.841,95.437,540.752,538.659,0.0
52619.0,STARLINK-3741,PAYLOAD,2023-10-03 12:40:39,15.08858029,0.0001566,53.2153,296.2233,93.0825,267.0346,0.00052514,8.084e-05,0.0,0 STARLINK-3741,1 52619U 22052X   23276.52824044  .00008084  00000-0  52514-3 0  9993,2 52619  53.2153 296.2233 0001566  93.0825 267.0346 15.08858029 76902,6917.825,95.436,540.774,538.607,0.0
52619.0,STARLINK-3741,PAYLOAD,2023-10-04 10:56:04,15.08850818,0.0001611,53.2156,292.0602,91.2395,268.8782,0.00031298,4.698e-05,0.0,0 STARLINK-3741,1 52619U 22052X   23277.45560384  .00004698  00000-0  31298-3 0  9993,2 52619  53.2156 292.0602 0001611  91.2395 268.8782 15.08850818 77421,6917.847,95.437,540.827,538.598,0.0
52619.0,STARLINK-3741,PAYLOAD,2023-10-04 12:31:27,15.08856615,0.0001566,53.2159,291.7631,95.7226,264.3944,0.00050189,7.712e-05,0.0,0 STARLINK-3741,1 52619U 22052X   23277.52184144  .00007712  00000-0  50189-3 0  9997,2 52619  53.2159 291.7631 0001566  95.7226 264.3944 15.08856615 77054,6917.83,95.437,540.778,538.611,0.0
52619.0,STARLINK-3741,PAYLOAD,2023-10-05 01:14:32,15.08841877,0.0001789,53.2162,289.3841,97.5307,262.5888,0.00022958,3.368e-05,0.0,0 STARLINK-3741,1 52619U 22052X   23278.05176710  .00003368  00000-0  22958-3 0  9992,2 52619  53.2162 289.3841 0001789  97.5307 262.5888 15.08841877 77513,6917.875,95.437,540.977,538.502,0.0
52619.0,STARLINK-3741,PAYLOAD,2023-10-05 12:22:14,15.0885189,0.0001653,53.2165,287.3027,95.4169,264.7012,0.0014256,0.00022481,0.0,0 STARLINK-3741,1 52619U 22052X   23278.51544642  .00022481  00000-0  14256-2 0  9994,2 52619  53.2165 287.3027 0001653  95.4169 264.7012 15.08851890 77208,6917.844,95.437,540.853,538.566,0.0
52619.0,STARLINK-3741,PAYLOAD,2023-10-06 07:26:52,15.08844417,0.0001637,53.2166,283.7353,88.1359,271.9821,0.0007214,0.00011213,0.0,0 STARLINK-3741,1 52619U 22052X   23279.31032922  .00011213  00000-0  72140-3 0  9994,2 52619  53.2166 283.7353 0001637  88.1359 271.9821 15.08844417 77703,6917.867,95.437,540.864,538.599,0.0
52619.0,STARLINK-3741,PAYLOAD,2023-10-06 12:13:01,15.08858597,0.0001558,53.2169,282.8425,86.8791,273.2379,0.00098436,0.00015421,0.0,0 STARLINK-3741,1 52619U 22052X   23279.50904608  .00015421  00000-0  98436-3 0  9995,2 52619  53.2169 282.8425 0001558  86.8791 273.2379 15.08858597 77351,6917.824,95.436,540.766,538.611,0.0
52619.0,STARLINK-3741,PAYLOAD,2023-10-06 16:59:11,15.08835959,0.0001355,53.2163,281.951,114.0289,246.0845,7.9223e-05,9.73e-06,0.0,0 STARLINK-3741,1 52619U 22052X   23279.70776885  .00000973  00000-0  79223-4 0  9991,2 52619  53.2163 281.9510 0001355 114.0289 246.0845 15.08835959 77769,6917.893,95.438,540.695,538.82,0.0
52619.0,STARLINK-3741,PAYLOAD,2023-10-07 10:28:25,15.0885527,0.0001517,53.2157,278.6795,110.8143,249.3011,0.0013955,0.00022,0.0,0 STARLINK-3741,1 52619U 22052X   23280.43640820  .00022000  00000-0  13955-2 0  9995,2 52619  53.2157 278.6795 0001517 110.8143 249.3011 15.08855270 77874,6917.834,95.437,540.748,538.649,0.0
52619.0,STARLINK-3741,PAYLOAD,2023-10-08 02:22:17,15.08842339,0.0001928,53.2162,275.7035,136.4575,223.6569,0.0010787,0.00016922,0.0,0 STARLINK-3741,1 52619U 22052X   23281.09881144  .00016922  00000-0  10787-2 0  9990,2 52619  53.2162 275.7035 0001928 136.4575 223.6569 15.08842339 77970,6917.873,95.437,541.072,538.404,0.0
52619.0,STARLINK-3741,PAYLOAD,2023-10-08 10:19:12,15.08846778,0.000133,53.215,274.2177,104.7706,255.3434,0.00048587,7.455e-05,0.0,0 STARLINK-3741,1 52619U 22052X   23281.43001090  .00007455  00000-0  48587-3 0  9993,2 52619  53.2150 274.2177 0001330 104.7706 255.3434 15.08846778 77647,6917.86,95.437,540.645,538.805,0.0
52619.0,STARLINK-3741,PAYLOAD,2023-10-08 16:40:45,15.08839354,0.0001602,53.2155,273.0289,98.1547,261.9626,0.00050613,7.776e-05,0.0,0 STARLINK-3741,1 52619U 22052X   23281.69497141  .00007776  00000-0  50613-3 0  9996,2 52619  53.2155 273.0289 0001602  98.1547 261.9626 15.08839354 78069,6917.882,95.438,540.856,538.639,0.0
52619.0,STARLINK-3741,PAYLOAD,2023-10-09 06:59:13,15.088489,0.0001631,53.2155,270.3526,90.8104,269.3075,0.00048123,7.381e-05,0.0,0 STARLINK-3741,1 52619U 22052X   23282.29113011  .00007381  00000-0  48123-3 0  9999,2 52619  53.2155 270.3526 0001631  90.8104 269.3075 15.08848900 77777,6917.853,95.437,540.846,538.59,0.0
52619.0,STARLINK-3741,PAYLOAD,2023-10-09 16:31:32,15.08842333,0.0001576,53.216,268.5675,89.4571,270.6602,0.00024304,3.582e-05,0.0,0 STARLINK-3741,1 52619U 22052X   23282.68857212  .00003582  00000-0  24304-3 0  9994,2 52619  53.2160 268.5675 0001576  89.4571 270.6602 15.08842333 78212,6917.873,95.437,540.829,538.648,0.0
52619.0,STARLINK-3741,PAYLOAD,2023-10-10 05:14:37,15.08843197,0.0001623,53.2161,266.189,91.9795,268.1383,0.00021814,3.186e-05,0.0,0 STARLINK-3741,1 52619U 22052X   23283.21849341  .00003186  00000-0  21814-3 0  9991,2 52619  53.2161 266.1890 0001623  91.9795 268.1383 15.08843197 77918,6917.871,95.437,540.858,538.613,0.0
52619.0,STARLINK-3741,PAYLOAD,2023-10-10 16:22:19,15.08843813,0.0001889,53.2161,264.1096,79.3308,280.7897,0.00025504,3.774e-05,0.0,0 STARLINK-3741,1 52619U 22052X   23283.68217467  .00003774  00000-0  25504-3 0  9993,2 52619  53.2161 264.1096 0001889  79.3308 280.7897 15.08843813 78363,6917.869,95.437,541.041,538.427,0.0
52619.0,STARLINK-3741,PAYLOAD,2023-10-10 22:43:52,15.08832224,0.0001437,53.2159,262.919,96.3745,263.7411,-2.9752e-05,-7.61e-06,0.0,0 STARLINK-3741,1 52619U 22052X   23283.94713705 -.00000761  00000-0 -29752-4 0  9993,2 52619  53.2159 262.9190 0001437  96.3745 263.7411 15.08832224 78406,6917.904,95.438,540.763,538.775,0.0
52619.0,STARLINK-3741,PAYLOAD,2023-10-11 09:51:34,15.08849647,0.0001781,53.2152,260.8359,104.0317,256.0874,0.00042308,6.453e-05,0.0,0 STARLINK-3741,1 52619U 22052X   23284.41081316  .00006453  00000-0  42308-3 0  9995,2 52619  53.2152 260.8359 0001781 104.0317 256.0874 15.08849647 78479,6917.851,95.437,540.948,538.484,0.0
52619.0,STARLINK-3741,PAYLOAD,2023-10-12 04:56:12,15.08849124,0.0001494,53.2155,257.2699,100.6275,259.4885,0.00054307,8.368e-05,0.0,0 STARLINK-3741,1 52619U 22052X   23285.20569671  .00008368  00000-0  54307-3 0  9997,2 52619  53.2155 257.2699 0001494 100.6275 259.4885 15.08849124 78597,6917.853,95.437,540.751,538.684,0.0
52619.0,STARLINK-3741,PAYLOAD,2023-10-12 09:42:21,15.08860902,0.0001479,53.216,256.3765,101.7412,258.3746,0.00098681,0.00015461,0.0,0 STARLINK-3741,1 52619U 22052X   23285.40441409  .00015461  00000-0  98681-3 0  9992,2 52619  53.2160 256.3765 0001479 101.7412 258.3746 15.08860902 78248,6917.817,95.436,540.705,538.658,0.0
52619.0,STARLINK-3741,PAYLOAD,2023-10-13 04:46:59,15.08849817,0.0001372,53.2162,252.8092,91.4937,268.6212,0.0015011,0.00023689,0.0,0 STARLINK-3741,1 52619U 22052X   23286.19929929  .00023689  00000-0  15011-2 0  9993,2 52619  53.2162 252.8092 0001372  91.4937 268.6212 15.08849817 78742,6917.85,95.437,540.665,538.766,0.0
52619.0,STARLINK-3741,PAYLOAD,2023-10-13 14:19:18,15.08850916,0.0001321,53.2163,251.0213,84.7252,275.389,0.0012038,0.00018928,0.0,0 STARLINK-3741,1 52619U 22052X   23286.59673750  .00018928  00000-0  12038-2 0  9991,2 52619  53.2163 251.0213 0001321  84.7252 275.3890 15.08850916 78422,6917.847,95.437,540.626,538.798,0.0
52619.0,STARLINK-3741,PAYLOAD,2023-10-13 22:16:13,15.08859024,0.0001951,53.2163,249.5378,92.3718,267.7497,0.0015073,0.00023795,0.0,0 STARLINK-3741,1 52619U 22052X   23286.92793718  .00023795  00000-0  15073-2 0  9995,2 52619  53.2163 249.5378 0001951  92.3718 267.7497 15.08859024 78479,6917.822,95.436,541.037,538.338,0.0
52619.0,STARLINK-3741,PAYLOAD,2023-10-14 04:37:46,15.08860345,0.0001341,53.2163,248.3512,97.7141,262.4003,0.0014015,0.000221,0.0,0 STARLINK-3741,1 52619U 22052X   23287.19289534  .00022100  00000-0  14015-2 0  9995,2 52619  53.2163 248.3512 0001341  97.7141 262.4003 15.08860345 78897,6917.818,95.436,540.611,538.756,0.0
52619.0,STARLINK-3741,PAYLOAD,2023-10-14 20:31:38,15.08840477,0.0002185,53.2169,245.3742,92.1114,268.0128,0.00028132,4.192e-05,0.0,0 STARLINK-3741,1 52619U 22052X   23287.85530113  .00004192  00000-0  28132-3 0  9997,2 52619  53.2169 245.3742 0002185  92.1114 268.0128 15.08840477 78996,6917.879,95.438,541.255,538.232,0.0
52619.0,STARLINK-3741,PAYLOAD,2023-10-15 14:00:52,15.08838387,0.0001428,53.2161,242.1028,100.6983,259.417,0.00082719,0.00012901,0.0,0 STARLINK-3741,1 52619U 22052X   23288.58394541  .00012901  00000-0  82719-3 0  9999,2 52619  53.2161 242.1028 0001428 100.6983 259.4170 15.08838387 78727,6917.885,95.438,540.738,538.762,0.0
52619.0,STARLINK-3741,PAYLOAD,2023-10-16 05:54:43,15.08861151,0.0001495,53.216,239.129,101.3115,258.8046,0.0011453,0.00017997,0.0,0 STARLINK-3741,1 52619U 22052X   23289.24634254  .00017997  00000-0  11453-2 0  9997,2 52619  53.2160 239.1290 0001495 101.3115 258.8046 15.08861151 78823,6917.816,95.436,540.715,538.647,0.0
52619.0,STARLINK-3741,PAYLOAD,2023-10-17 20:03:59,15.0886554,0.0001512,53.2162,231.994,88.3301,271.7864,0.0012892,0.00020304,0.0,0 STARLINK-3741,1 52619U 22052X   23290.83610724  .00020304  00000-0  12892-2 0  9994,2 52619  53.2162 231.9940 0001512  88.3301 271.7864 15.08865540 79445,6917.802,95.436,540.713,538.621,0.0
